{
    "type": "FeatureCollection",
    "features": [
        {
            "type": "Feature",
            "properties": {
                "bus": "yes",
                "highway": "bus_stop",
                "name": "강남역1번출구.역삼세무서",
                "public_transport": "platform",
                "ref": "23287",
                "source": "공공데이터포털",
                "source:date": "2021/09/16 07:31:03",
                "id": "node/357837532"
            },
            "geometry": {
                "type": "Point",
                "coordinates": [
                    127.0290811,
                    37.4982595
                ]
            }
        },
        {
            "type": "Feature",
            "properties": {
                "bus": "yes",
                "highway": "bus_stop",
                "name": "지하철2호선.강남역(중)",
                "name:en": "Gangnam Station (Subway Line 2)",
                "name:ja": "地下鉄2号線.江南駅",
                "name:ko": "지하철2호선.강남역(중)",
                "public_transport": "platform",
                "ref": "22012",
                "source": "공공데이터포털",
                "source:date": "2021/09/16 07:31:03",
                "id": "node/357840217"
            },
            "geometry": {
                "type": "Point",
                "coordinates": [
                    127.0262157,
                    37.5008408
                ]
            }
        },
        {
            "type": "Feature",
            "properties": {
                "bus": "yes",
                "highway": "bus_stop",
                "name": "강남역",
                "name:en": "Gangnam Station",
                "name:ko": "강남역",
                "name:ko-Latn": "Gangnamyeok",
                "public_transport": "platform",
                "ref": "23900",
                "route_ref": "4424;4431;3412;4312;4422;5412",
                "source": "공공데이터포털",
                "source:date": "2021/09/16 07:31:03",
                "wheelchair": "yes",
                "id": "node/357884649"
            },
            "geometry": {
                "type": "Point",
                "coordinates": [
                    127.0267345,
                    37.5002114
                ]
            }
        },
        {
            "type": "Feature",
            "properties": {
                "bus": "yes",
                "highway": "bus_stop",
                "name": "강남역",
                "name:en": "Gangnam Station",
                "name:ko": "강남역",
                "name:ko-Latn": "Gangnamyeok",
                "public_transport": "platform",
                "ref": "22173",
                "route_ref": "4431;3412;4422;4312;4424",
                "source": "공공데이터포털",
                "source:date": "2021/09/16 07:31:03",
                "id": "node/357885448"
            },
            "geometry": {
                "type": "Point",
                "coordinates": [
                    127.0263182,
                    37.4999282
                ]
            }
        },
        {
            "type": "Feature",
            "properties": {
                "amenity": "cinema",
                "name": "메가박스 씨티극장",
                "name:en": "City Cinema",
                "name:ko": "메가박스 씨티극장",
                "name:ko-Latn": "Ssitigeukjang",
                "ncat": "극장",
                "source": "http://kr.open.gugi.yahoo.com",
                "id": "node/368635189"
            },
            "geometry": {
                "type": "Point",
                "coordinates": [
                    127.0269196,
                    37.5003551
                ]
            }
        },
        {
            "type": "Feature",
            "properties": {
                "amenity": "dentist",
                "healthcare": "dentist",
                "name": "푸른나무치과의원",
                "name:en": "Pureunnamu Dental Clinic",
                "name:ko": "푸른나무치과의원",
                "name:ko-Latn": "Pureunnamuchigwauiwon",
                "ncat": "치과",
                "id": "node/368737960"
            },
            "geometry": {
                "type": "Point",
                "coordinates": [
                    127.02886,
                    37.49879
                ]
            }
        },
        {
            "type": "Feature",
            "properties": {
                "amenity": "dentist",
                "healthcare": "dentist",
                "name": "미소드림치과",
                "name:en": "Misodeurim Dental Clinic",
                "name:ko": "미소드림치과",
                "name:ko-Latn": "Misodeurimchigwa",
                "ncat": "치과",
                "id": "node/368738707"
            },
            "geometry": {
                "type": "Point",
                "coordinates": [
                    127.02758,
                    37.49901
                ]
            }
        },
        {
            "type": "Feature",
            "properties": {
                "amenity": "dentist",
                "healthcare": "dentist",
                "name": "원데이치과의원",
                "name:en": "Oneday Dentistry",
                "name:ko": "원데이치과의원",
                "ncat": "치과",
                "id": "node/368740546"
            },
            "geometry": {
                "type": "Point",
                "coordinates": [
                    127.0262944,
                    37.501607
                ]
            }
        },
        {
            "type": "Feature",
            "properties": {
                "amenity": "research_institute",
                "name": "벤처경영연구소",
                "name:en": "Bencheogyeongyeong Research Institute",
                "name:ja": "ベンチャー経営研究所",
                "name:ko": "벤처경영연구소",
                "name:ko-Latn": "Bencheogyeongyeongyeonguso",
                "ncat": "연구소",
                "source": "http://kr.open.gugi.yahoo.com",
                "id": "node/368872263"
            },
            "geometry": {
                "type": "Point",
                "coordinates": [
                    127.024707,
                    37.500461
                ]
            }
        },
        {
            "type": "Feature",
            "properties": {
                "amenity": "restaurant",
                "name": "해금강횟집",
                "name:en": "Haegeumgang Fish Restaurant",
                "name:ko": "해금강횟집",
                "name:ko-Latn": "Haegeumganghoetjip",
                "ncat": "횟집",
                "source": "http://kr.open.gugi.yahoo.com",
                "id": "node/368956211"
            },
            "geometry": {
                "type": "Point",
                "coordinates": [
                    127.0288641,
                    37.4991971
                ]
            }
        },
        {
            "type": "Feature",
            "properties": {
                "amenity": "cinema",
                "brand": "씨제이 씨지브이)㈜",
                "brand:en": "CGV Cinema",
                "brand:ko": "씨제이 씨지브이)㈜",
                "brand:kr": "씨제이 씨지브이)㈜",
                "brand:wikidata": "Q5012261",
                "check_date": "2022-10-04",
                "name": "CGV",
                "name:en": "CGV Cinema",
                "name:ja": "CGV",
                "name:ko": "씨제이 씨지브이)㈜",
                "id": "node/1925407798"
            },
            "geometry": {
                "type": "Point",
                "coordinates": [
                    127.0264096,
                    37.5016463
                ]
            }
        },
        {
            "type": "Feature",
            "properties": {
                "name": "강남역 10번 출구",
                "name:en": "Gangnam Station Exit 10",
                "name:ja": "江南駅 10番出口",
                "railway": "subway_entrance",
                "ref": "10",
                "id": "node/1925407862"
            },
            "geometry": {
                "type": "Point",
                "coordinates": [
                    127.0270249,
                    37.498634
                ]
            }
        },
        {
            "type": "Feature",
            "properties": {
                "name": "강남역 11번 출구",
                "name:en": "Gangnam Station Exit 11",
                "name:ja": "江南駅 11番出口",
                "railway": "subway_entrance",
                "ref": "11",
                "id": "node/1925407863"
            },
            "geometry": {
                "type": "Point",
                "coordinates": [
                    127.0274066,
                    37.4987305
                ]
            }
        },
        {
            "type": "Feature",
            "properties": {
                "amenity": "bank",
                "atm": "yes",
                "brand": "우리은행",
                "brand:en": "Woori Bank",
                "brand:ko": "우리은행",
                "brand:wikidata": "Q494369",
                "name": "우리은행",
                "name:en": "Woori Bank",
                "name:ko": "우리은행",
                "operator": "우리은행",
                "id": "node/1925407872"
            },
            "geometry": {
                "type": "Point",
                "coordinates": [
                    127.0263113,
                    37.4994172
                ]
            }
        },
        {
            "type": "Feature",
            "properties": {
                "amenity": "bank",
                "name": "한국스탠다드차타드은행",
                "id": "node/2102394688"
            },
            "geometry": {
                "type": "Point",
                "coordinates": [
                    127.0275572,
                    37.4991231
                ]
            }
        },
        {
            "type": "Feature",
            "properties": {
                "addr:city": "서울특별시 (Seoul)",
                "addr:housenumber": "419",
                "addr:postcode": "06614",
                "addr:street": "강남대로",
                "amenity": "bank",
                "brand": "KB국민은행",
                "brand:en": "KB Kookmin Bank",
                "brand:ko": "KB국민은행",
                "brand:wikidata": "Q496606",
                "brand:wikipedia": "en:Kookmin Bank",
                "name": "KB국민은행",
                "name:en": "KB Kookmin Bank",
                "name:ko": "KB국민은행",
                "id": "node/2103891648"
            },
            "geometry": {
                "type": "Point",
                "coordinates": [
                    127.026135,
                    37.4997636
                ]
            }
        },
        {
            "type": "Feature",
            "properties": {
                "amenity": "college",
                "name": "서울한국어아카데미",
                "name:en": "Seoul Korean Academy",
                "name:ja": "ソウル韓国語アカデミー",
                "website": "http://seoul-kla.com/",
                "id": "node/3058316434"
            },
            "geometry": {
                "type": "Point",
                "coordinates": [
                    127.0272529,
                    37.4991509
                ]
            }
        },
        {
            "type": "Feature",
            "properties": {
                "name": "강남역 12번 출구",
                "name:en": "Gangnam Station gate 12",
                "name:ja": "江南駅 12番出口",
                "railway": "subway_entrance",
                "ref": "12",
                "source": "survey",
                "id": "node/3103183129"
            },
            "geometry": {
                "type": "Point",
                "coordinates": [
                    127.0285441,
                    37.4984172
                ]
            }
        },
        {
            "type": "Feature",
            "properties": {
                "amenity": "cinema",
                "name": "청춘극장",
                "name:en": "Cheongchun Cinema",
                "name:ko": "청춘극장",
                "name:ko-Latn": "Cheongchungeukjang",
                "id": "node/3112723447"
            },
            "geometry": {
                "type": "Point",
                "coordinates": [
                    127.0250868,
                    37.5002443
                ]
            }
        },
        {
            "type": "Feature",
            "properties": {
                "addr:city": "서울특별시 (Seoul)",
                "addr:housenumber": "7",
                "addr:postcode": "06614",
                "addr:street": "강남대로65길",
                "amenity": "pub",
                "level": "3",
                "name": "크래프트한스 강남직영1호점",
                "name:en": "Craft Hans",
                "name:ko": "크래프트한스 강남직영1호점",
                "id": "node/3794028593"
            },
            "geometry": {
                "type": "Point",
                "coordinates": [
                    127.0253065,
                    37.5002591
                ]
            }
        },
        {
            "type": "Feature",
            "properties": {
                "amenity": "pub",
                "name": "옥토버훼스트 강남점",
                "name:en": "Oktoberfest",
                "name:ko": "옥토버훼스트 강남점",
                "id": "node/3794028596"
            },
            "geometry": {
                "type": "Point",
                "coordinates": [
                    127.0256261,
                    37.4983956
                ]
            }
        },
        {
            "type": "Feature",
            "properties": {
                "amenity": "pub",
                "name": "써스티몽크 강남역점",
                "name:en": "Thirsty Monk",
                "name:ko": "써스티몽크 강남역점",
                "id": "node/3794028597"
            },
            "geometry": {
                "type": "Point",
                "coordinates": [
                    127.025394,
                    37.4987805
                ]
            }
        },
        {
            "type": "Feature",
            "properties": {
                "addr:city": "서울특별시 (Seoul)",
                "addr:housenumber": "35",
                "addr:postcode": "06612",
                "addr:street": "서초대로75길",
                "amenity": "bar",
                "floor": "2",
                "level": "3",
                "name": "Wood Stock",
                "name:en": "Wood Stock",
                "id": "node/4250163825"
            },
            "geometry": {
                "type": "Point",
                "coordinates": [
                    127.024887,
                    37.5005677
                ]
            }
        },
        {
            "type": "Feature",
            "properties": {
                "amenity": "bar",
                "name": "The Booth 2",
                "id": "node/4250475281"
            },
            "geometry": {
                "type": "Point",
                "coordinates": [
                    127.0277735,
                    37.5004987
                ]
            }
        },
        {
            "type": "Feature",
            "properties": {
                "alt_name:ko": "파리바게트",
                "brand": "파리바게뜨",
                "brand:en": "Paris Baguette",
                "brand:ko": "파리바게뜨",
                "brand:wikidata": "Q62605260",
                "name": "파리바게뜨",
                "name:en": "Paris Baguette",
                "name:ko": "파리바게뜨",
                "shop": "bakery",
                "id": "node/4855965722"
            },
            "geometry": {
                "type": "Point",
                "coordinates": [
                    127.0270611,
                    37.4994442
                ]
            }
        },
        {
            "type": "Feature",
            "properties": {
                "amenity": "restaurant",
                "cuisine": "chicken;korean",
                "name": "烈鳳燉雞",
                "name:en": "Yeolbong Jjimdak Gangnam",
                "name:zh-Hant": "烈鳳燉雞",
                "id": "node/4855980521"
            },
            "geometry": {
                "type": "Point",
                "coordinates": [
                    127.027665,
                    37.5003293
                ]
            }
        },
        {
            "type": "Feature",
            "properties": {
                "name": "위드미",
                "shop": "convenience",
                "id": "node/4905675813"
            },
            "geometry": {
                "type": "Point",
                "coordinates": [
                    127.027483,
                    37.4990734
                ]
            }
        },
        {
            "type": "Feature",
            "properties": {
                "amenity": "cinema",
                "name": "강남",
                "id": "node/5130198948"
            },
            "geometry": {
                "type": "Point",
                "coordinates": [
                    127.0270095,
                    37.4995021
                ]
            }
        },
        {
            "type": "Feature",
            "properties": {
                "amenity": "cafe",
                "name": "에나타 타로카페",
                "id": "node/5130198949"
            },
            "geometry": {
                "type": "Point",
                "coordinates": [
                    127.0274281,
                    37.5004214
                ]
            }
        },
        {
            "type": "Feature",
            "properties": {
                "name": "강남스타일 말춤 스테이지",
                "name:en": "Gangnam Style Horse Dance Stage",
                "name:ja": "江南スタイル 乗馬ダンスステージ",
                "tourism": "attraction",
                "id": "node/5468966624"
            },
            "geometry": {
                "type": "Point",
                "coordinates": [
                    127.0278214,
                    37.4983502
                ]
            }
        },
        {
            "type": "Feature",
            "properties": {
                "amenity": "restaurant",
                "brand": "Din Tai Fung",
                "brand:en": "Din Tai Fung",
                "brand:wikidata": "Q699142",
                "brand:wikipedia": "en:Din Tai Fung",
                "brand:zh": "鼎泰豐",
                "cuisine": "taiwanese",
                "name": "Din Tai Fung",
                "name:en": "Din Tai Fung",
                "name:ja": "鼎泰豊",
                "name:zh": "鼎泰豐",
                "opening_hours": "Mo-Su 11:00-22:00",
                "id": "node/5502393722"
            },
            "geometry": {
                "type": "Point",
                "coordinates": [
                    127.0255993,
                    37.4984604
                ]
            }
        },
        {
            "type": "Feature",
            "properties": {
                "amenity": "restaurant",
                "name": "명동칼국수",
                "id": "node/5529600286"
            },
            "geometry": {
                "type": "Point",
                "coordinates": [
                    127.024761,
                    37.5004268
                ]
            }
        },
        {
            "type": "Feature",
            "properties": {
                "addr:housenumber": "428",
                "addr:postcode": "06129",
                "addr:street": "강남대로",
                "brand": "Uniqlo",
                "brand:wikidata": "Q26070",
                "brand:wikipedia": "en:Uniqlo",
                "name": "Uniqlo",
                "opening_hours": "Mo-Su 11:30-21:30",
                "phone": "+82 220511810",
                "shop": "clothes",
                "id": "node/5578077423"
            },
            "geometry": {
                "type": "Point",
                "coordinates": [
                    127.0267002,
                    37.5007387
                ]
            }
        },
        {
            "type": "Feature",
            "properties": {
                "amenity": "fast_food",
                "branch": "강남2호점",
                "brand": "맥도날드",
                "brand:en": "McDonald's",
                "brand:ko": "맥도날드",
                "brand:wikidata": "Q38076",
                "brand:wikipedia": "ko:맥도날드",
                "cuisine": "burger",
                "name": "맥도날드",
                "name:de": "McDonald's",
                "name:en": "McDonald's",
                "name:ja": "マクドナルド",
                "name:ko": "맥도날드",
                "name:zh": "麦当劳",
                "operator": "한국맥도날드",
                "operator:en": "McDonald's",
                "payment:american_express": "yes",
                "payment:coins": "yes",
                "payment:diners_club": "yes",
                "payment:discover_card": "yes",
                "payment:jcb": "yes",
                "payment:mastercard": "yes",
                "payment:notes": "yes",
                "payment:unionpay": "yes",
                "payment:visa": "yes",
                "smoking": "no",
                "takeaway": "yes",
                "website": "http://www.mcdonalds.co.kr/",
                "id": "node/5594463721"
            },
            "geometry": {
                "type": "Point",
                "coordinates": [
                    127.0287632,
                    37.4986075
                ]
            }
        },
        {
            "type": "Feature",
            "properties": {
                "amenity": "restaurant",
                "name": "고에몬 (달인,",
                "name:ko": "고에몬 (달인, 파스타)",
                "id": "node/5629699125"
            },
            "geometry": {
                "type": "Point",
                "coordinates": [
                    127.0263295,
                    37.4984297
                ]
            }
        },
        {
            "type": "Feature",
            "properties": {
                "addr:housenumber": "438",
                "addr:postcode": "06123",
                "addr:street": "강남대로",
                "check_date": "2022-10-04",
                "name": "알라딘",
                "name:en": "aladin",
                "name:ja": "アラジン",
                "opening_hours": "Mo-Su 09:30-22:00",
                "shop": "books",
                "id": "node/5894297786"
            },
            "geometry": {
                "type": "Point",
                "coordinates": [
                    127.0263683,
                    37.5015279
                ]
            }
        },
        {
            "type": "Feature",
            "properties": {
                "addr:housenumber": "29",
                "name": "이마트24",
                "shop": "convenience",
                "id": "node/6300473287"
            },
            "geometry": {
                "type": "Point",
                "coordinates": [
                    127.0248494,
                    37.5013219
                ]
            }
        },
        {
            "type": "Feature",
            "properties": {
                "addr:housenumber": "37",
                "amenity": "nightclub",
                "name": "가비아 클럽",
                "id": "node/6300474687"
            },
            "geometry": {
                "type": "Point",
                "coordinates": [
                    127.0247712,
                    37.5014887
                ]
            }
        },
        {
            "type": "Feature",
            "properties": {
                "amenity": "nightclub",
                "name": "클럽매스",
                "id": "node/6300474688"
            },
            "geometry": {
                "type": "Point",
                "coordinates": [
                    127.0269416,
                    37.4983393
                ]
            }
        },
        {
            "type": "Feature",
            "properties": {
                "addr:housenumber": "18",
                "addr:street": "강남대로94길",
                "amenity": "restaurant",
                "cuisine": "korean",
                "name": "종로삼계탕",
                "id": "node/6956479385"
            },
            "geometry": {
                "type": "Point",
                "coordinates": [
                    127.0288597,
                    37.4993742
                ]
            }
        },
        {
            "type": "Feature",
            "properties": {
                "name": "17 Gangnam daero 61-gil, Seocho 4 (sa) - Dong",
                "tourism": "apartment",
                "id": "node/7021614785"
            },
            "geometry": {
                "type": "Point",
                "coordinates": [
                    127.0250404,
                    37.4986653
                ]
            }
        },
        {
            "type": "Feature",
            "properties": {
                "addr:street": "620-15 Yeoksam-dong, Gangnam-gu, Seoul, South Korea / 서울특별시 강남구 역삼동 620-15",
                "amenity": "cafe",
                "name": "브라운홀릭",
                "name:en": "Brownholic",
                "phone": "+82 2-555-5979",
                "website": "http://brownholic.com",
                "id": "node/7160228385"
            },
            "geometry": {
                "type": "Point",
                "coordinates": [
                    127.0288833,
                    37.5010184
                ]
            }
        },
        {
            "type": "Feature",
            "properties": {
                "addr:street": "25 Gangnam-daero 98-gil, Yeoksam-dong, Gangnam-gu, Seoul, South Korea / 서울특별시 강남구 강남대로98길 25 (역삼동)",
                "amenity": "cafe",
                "name": "브라운홀릭",
                "name:en": "Brownholic",
                "phone": "+82 31-274-5978",
                "website": "http://brownholic.com",
                "id": "node/7160263485"
            },
            "geometry": {
                "type": "Point",
                "coordinates": [
                    127.0286588,
                    37.5010383
                ]
            }
        },
        {
            "type": "Feature",
            "properties": {
                "name": "M Chereville Airb&b",
                "tourism": "apartment",
                "id": "node/7192999087"
            },
            "geometry": {
                "type": "Point",
                "coordinates": [
                    127.0250073,
                    37.4986543
                ]
            }
        },
        {
            "type": "Feature",
            "properties": {
                "amenity": "restaurant",
                "name": "Pomato 24hrs",
                "id": "node/7203789385"
            },
            "geometry": {
                "type": "Point",
                "coordinates": [
                    127.0262367,
                    37.4986301
                ]
            }
        },
        {
            "type": "Feature",
            "properties": {
                "amenity": "restaurant",
                "name": "pomato 24hr’s",
                "id": "node/7203800485"
            },
            "geometry": {
                "type": "Point",
                "coordinates": [
                    127.0262024,
                    37.4986096
                ]
            }
        },
        {
            "type": "Feature",
            "properties": {
                "amenity": "restaurant",
                "name": "seorae BBQ pork",
                "id": "node/7206067685"
            },
            "geometry": {
                "type": "Point",
                "coordinates": [
                    127.0284171,
                    37.5001002
                ]
            }
        },
        {
            "type": "Feature",
            "properties": {
                "amenity": "restaurant",
                "name": "Porridge",
                "id": "node/7206082885"
            },
            "geometry": {
                "type": "Point",
                "coordinates": [
                    127.0292081,
                    37.4998012
                ]
            }
        },
        {
            "type": "Feature",
            "properties": {
                "amenity": "restaurant",
                "name": "porridge",
                "id": "node/7206082886"
            },
            "geometry": {
                "type": "Point",
                "coordinates": [
                    127.0291838,
                    37.4997835
                ]
            }
        },
        {
            "type": "Feature",
            "properties": {
                "amenity": "restaurant",
                "cuisine": "chicken;korean",
                "name": "yoogane",
                "name:en": "Yoogane",
                "name:ko": "Yoogane",
                "id": "node/7206084285"
            },
            "geometry": {
                "type": "Point",
                "coordinates": [
                    127.0276816,
                    37.5000501
                ]
            }
        },
        {
            "type": "Feature",
            "properties": {
                "amenity": "restaurant",
                "name": "Primo bacio baci, Italian",
                "id": "node/7206101785"
            },
            "geometry": {
                "type": "Point",
                "coordinates": [
                    127.0270793,
                    37.499893
                ]
            }
        },
        {
            "type": "Feature",
            "properties": {
                "amenity": "restaurant",
                "name": "primo bacio baci Italian",
                "id": "node/7206116085"
            },
            "geometry": {
                "type": "Point",
                "coordinates": [
                    127.0271511,
                    37.4998878
                ]
            }
        },
        {
            "type": "Feature",
            "properties": {
                "amenity": "restaurant",
                "name": "AUCE beef bbq",
                "id": "node/7206144985"
            },
            "geometry": {
                "type": "Point",
                "coordinates": [
                    127.0284892,
                    37.4998687
                ]
            }
        },
        {
            "type": "Feature",
            "properties": {
                "amenity": "restaurant",
                "name": "Ugly Stove, pasta",
                "id": "node/7207625385"
            },
            "geometry": {
                "type": "Point",
                "coordinates": [
                    127.0282956,
                    37.5008348
                ]
            }
        },
        {
            "type": "Feature",
            "properties": {
                "amenity": "restaurant",
                "name": "Mango Plate AUCE bbq",
                "id": "node/7207905285"
            },
            "geometry": {
                "type": "Point",
                "coordinates": [
                    127.0274943,
                    37.5008685
                ]
            }
        },
        {
            "type": "Feature",
            "properties": {
                "name": "Folder Store",
                "shop": "department_store",
                "id": "node/7208699085"
            },
            "geometry": {
                "type": "Point",
                "coordinates": [
                    127.0252977,
                    37.5015104
                ]
            }
        },
        {
            "type": "Feature",
            "properties": {
                "name": "The Body Shop",
                "shop": "department_store",
                "id": "node/7208741387"
            },
            "geometry": {
                "type": "Point",
                "coordinates": [
                    127.0265362,
                    37.499217
                ]
            }
        },
        {
            "type": "Feature",
            "properties": {
                "name": "폴더",
                "name:en": "Folder",
                "shop": "clothes",
                "id": "node/7211100585"
            },
            "geometry": {
                "type": "Point",
                "coordinates": [
                    127.025415,
                    37.5015385
                ]
            }
        },
        {
            "type": "Feature",
            "properties": {
                "amenity": "restaurant",
                "name": "Ugly Stove pasta",
                "id": "node/7211117987"
            },
            "geometry": {
                "type": "Point",
                "coordinates": [
                    127.0282662,
                    37.5008164
                ]
            }
        },
        {
            "type": "Feature",
            "properties": {
                "amenity": "restaurant",
                "cuisine": "vietnamese",
                "name": "Tam Tam Viet noodle",
                "id": "node/7211126385"
            },
            "geometry": {
                "type": "Point",
                "coordinates": [
                    127.0279865,
                    37.5004003
                ]
            }
        },
        {
            "type": "Feature",
            "properties": {
                "brand": "세븐일레븐",
                "brand:en": "7-Eleven",
                "brand:ko": "세븐일레븐",
                "brand:wikidata": "Q259340",
                "name": "세븐일레븐",
                "name:en": "7-Eleven",
                "name:ko": "세븐일레븐",
                "shop": "convenience",
                "id": "node/7597460220"
            },
            "geometry": {
                "type": "Point",
                "coordinates": [
                    127.0254338,
                    37.500085
                ]
            }
        },
        {
            "type": "Feature",
            "properties": {
                "brand": "세븐일레븐",
                "brand:en": "7-Eleven",
                "brand:ko": "세븐일레븐",
                "brand:wikidata": "Q259340",
                "name": "세븐일레븐",
                "name:en": "7-Eleven",
                "name:ko": "세븐일레븐",
                "shop": "convenience",
                "id": "node/7597496905"
            },
            "geometry": {
                "type": "Point",
                "coordinates": [
                    127.0252762,
                    37.5008469
                ]
            }
        },
        {
            "type": "Feature",
            "properties": {
                "brand": "세븐일레븐",
                "brand:en": "7-Eleven",
                "brand:ko": "세븐일레븐",
                "brand:wikidata": "Q259340",
                "brand:wikipedia": "en:7-Eleven",
                "name": "세븐일레븐",
                "name:en": "7-Eleven",
                "name:ko": "세븐일레븐",
                "shop": "convenience",
                "id": "node/7597500312"
            },
            "geometry": {
                "type": "Point",
                "coordinates": [
                    127.02491,
                    37.5013924
                ]
            }
        },
        {
            "type": "Feature",
            "properties": {
                "amenity": "restaurant",
                "cuisine": "turkish",
                "name": "Pasha",
                "name:en": "Turkish cuisine",
                "id": "node/8212531717"
            },
            "geometry": {
                "type": "Point",
                "coordinates": [
                    127.0255987,
                    37.4984138
                ]
            }
        },
        {
            "type": "Feature",
            "properties": {
                "bus": "yes",
                "highway": "bus_stop",
                "name": "강남역.서초초교앞",
                "name:en": "Gangnam Station, in front of Seocho Elementary School",
                "name:ko": "강남역.서초초교앞",
                "public_transport": "platform",
                "ref": "22850",
                "source": "공공데이터포털",
                "source:date": "2021/09/16 07:31:03",
                "id": "node/9311286022"
            },
            "geometry": {
                "type": "Point",
                "coordinates": [
                    127.0264125,
                    37.4997574
                ]
            }
        },
        {
            "type": "Feature",
            "properties": {
                "bus": "yes",
                "highway": "bus_stop",
                "name": "강남역.뉴욕제과",
                "name:en": "Gangnam Station, New York Confectionary",
                "name:ko": "강남역.뉴욕제과",
                "public_transport": "platform",
                "ref": "22885",
                "source": "공공데이터포털",
                "source:date": "2021/09/16 07:31:03",
                "id": "node/9322016181"
            },
            "geometry": {
                "type": "Point",
                "coordinates": [
                    127.0264405,
                    37.4992095
                ]
            }
        },
        {
            "type": "Feature",
            "properties": {
                "bus": "yes",
                "highway": "bus_stop",
                "name": "신논현역",
                "name:en": "Sinnonhyeon Station",
                "name:ko": "신논현역",
                "public_transport": "platform",
                "ref": "23641",
                "source": "공공데이터포털",
                "source:date": "2021/09/16 07:31:03",
                "id": "node/9322016182"
            },
            "geometry": {
                "type": "Point",
                "coordinates": [
                    127.02644,
                    37.5010162
                ]
            }
        },
        {
            "type": "Feature",
            "properties": {
                "bus": "yes",
                "highway": "bus_stop",
                "name": "강남역",
                "name:en": "Gangnam Station",
                "name:ko": "강남역",
                "public_transport": "platform",
                "ref": "23285",
                "source": "공공데이터포털",
                "source:date": "2021/09/16 07:31:03",
                "id": "node/9322016184"
            },
            "geometry": {
                "type": "Point",
                "coordinates": [
                    127.0269678,
                    37.4999348
                ]
            }
        },
        {
            "type": "Feature",
            "properties": {
                "name": "Artbox",
                "shop": "convenience",
                "id": "node/9693953917"
            },
            "geometry": {
                "type": "Point",
                "coordinates": [
                    127.0268682,
                    37.5003742
                ]
            }
        },
        {
            "type": "Feature",
            "properties": {
                "amenity": "cafe",
                "cuisine": "dessert",
                "fixme": "brand",
                "level": "2",
                "name": "Sulbing Cafe",
                "wheelchair": "limited",
                "id": "node/9776373036"
            },
            "geometry": {
                "type": "Point",
                "coordinates": [
                    127.027082,
                    37.5010855
                ]
            }
        },
        {
            "type": "Feature",
            "properties": {
                "leisure": "amusement_arcade",
                "level": "-1",
                "name": "The Maze VR",
                "name:ko": "더 메이즈",
                "wheelchair": "no",
                "id": "node/9776374323"
            },
            "geometry": {
                "type": "Point",
                "coordinates": [
                    127.0284973,
                    37.4995808
                ]
            }
        },
        {
            "type": "Feature",
            "properties": {
                "fixme": "brand",
                "level": "1",
                "name": "Muji",
                "shop": "variety_store",
                "id": "node/9776442259"
            },
            "geometry": {
                "type": "Point",
                "coordinates": [
                    127.0262278,
                    37.4997791
                ]
            }
        },
        {
            "type": "Feature",
            "properties": {
                "name": "라인프렌즈 플래그십 스토어",
                "name:en": "Line Friends Flagship Store",
                "name:ko": "라인프렌즈 플래그십 스토어 강남점",
                "shop": "gift",
                "id": "node/9776562203"
            },
            "geometry": {
                "type": "Point",
                "coordinates": [
                    127.0255682,
                    37.501326
                ]
            }
        },
        {
            "type": "Feature",
            "properties": {
                "leisure": "escape_game",
                "level": "-1",
                "name": "Next Edition",
                "id": "node/9776618354"
            },
            "geometry": {
                "type": "Point",
                "coordinates": [
                    127.028345,
                    37.4995264
                ]
            }
        },
        {
            "type": "Feature",
            "properties": {
                "alt_name": "Dunkin' Donuts",
                "amenity": "fast_food",
                "branch": "Coffee House",
                "brand": "Dunkin'",
                "brand:wikidata": "Q847743",
                "cuisine": "donut;coffee_shop",
                "name": "Dunkin'",
                "takeaway": "yes",
                "id": "node/9776621748"
            },
            "geometry": {
                "type": "Point",
                "coordinates": [
                    127.0281467,
                    37.4989163
                ]
            }
        },
        {
            "type": "Feature",
            "properties": {
                "amenity": "cafe",
                "fixme": "brand",
                "level": "2",
                "name": "A Twosome Place",
                "id": "node/9776624307"
            },
            "geometry": {
                "type": "Point",
                "coordinates": [
                    127.0279194,
                    37.4993697
                ]
            }
        },
        {
            "type": "Feature",
            "properties": {
                "amenity": "cafe",
                "level": "2",
                "name": "Daily Espresso Bar",
                "wheelchair": "no",
                "id": "node/9776629491"
            },
            "geometry": {
                "type": "Point",
                "coordinates": [
                    127.0267709,
                    37.5005317
                ]
            }
        },
        {
            "type": "Feature",
            "properties": {
                "brand": "GS25",
                "brand:wikidata": "Q624041",
                "fixme": "brand",
                "level": "1",
                "name": "GS25",
                "shop": "convenience",
                "id": "node/9776634926"
            },
            "geometry": {
                "type": "Point",
                "coordinates": [
                    127.0281202,
                    37.4994256
                ]
            }
        },
        {
            "type": "Feature",
            "properties": {
                "level": "1",
                "name": "Wonderplace",
                "shop": "clothes",
                "id": "node/9789186909"
            },
            "geometry": {
                "type": "Point",
                "coordinates": [
                    127.0270669,
                    37.5011205
                ]
            }
        },
        {
            "type": "Feature",
            "properties": {
                "amenity": "restaurant",
                "cuisine": "japanese",
                "diet:vegetarian": "no",
                "fixme": "position_estimated",
                "internet_access": "wlan",
                "level": "-1",
                "name": "모리 카츠",
                "name:en": "Mori Katsu",
                "wheelchair": "no",
                "id": "node/9789213377"
            },
            "geometry": {
                "type": "Point",
                "coordinates": [
                    127.0272041,
                    37.5009192
                ]
            }
        },
        {
            "type": "Feature",
            "properties": {
                "amenity": "fast_food",
                "check_date": "2022-10-04",
                "cuisine": "chicken;burger",
                "fixme": "brand",
                "level": "2",
                "name": "Mom's Touch",
                "id": "node/9789220861"
            },
            "geometry": {
                "type": "Point",
                "coordinates": [
                    127.0268556,
                    37.5016186
                ]
            }
        },
        {
            "type": "Feature",
            "properties": {
                "addr:city": "서울특별시",
                "addr:housenumber": "41",
                "addr:postcode": "06612",
                "addr:street": "서초대로77길",
                "amenity": "language_school",
                "language:ch": "yes",
                "name": "남미숙 중국어 강남학원",
                "id": "node/10556449195"
            },
            "geometry": {
                "type": "Point",
                "coordinates": [
                    127.0249292,
                    37.5012364
                ]
            }
        },
        {
            "type": "Feature",
            "properties": {
                "amenity": "restaurant",
                "name": "Jangin Dak Galbi",
                "id": "node/10632766805"
            },
            "geometry": {
                "type": "Point",
                "coordinates": [
                    127.0275549,
                    37.499706
                ]
            }
        },
        {
            "type": "Feature",
            "properties": {
                "amenity": "restaurant",
                "name": "Witch's Kitchen.  Italian",
                "id": "node/10632787705"
            },
            "geometry": {
                "type": "Point",
                "coordinates": [
                    127.0286012,
                    37.4997344
                ]
            }
        },
        {
            "type": "Feature",
            "properties": {
                "amenity": "restaurant",
                "name": "Yomenya Goemon. Jap Pasta",
                "id": "node/10636156906"
            },
            "geometry": {
                "type": "Point",
                "coordinates": [
                    127.0263838,
                    37.4985946
                ]
            }
        },
        {
            "type": "Feature",
            "properties": {
                "amenity": "restaurant",
                "name": "Deulkoch . Porridge.",
                "id": "node/10636908906"
            },
            "geometry": {
                "type": "Point",
                "coordinates": [
                    127.0247409,
                    37.5016604
                ]
            }
        },
        {
            "type": "Feature",
            "properties": {
                "addr:city": "서울 강남구",
                "addr:housenumber": "11",
                "addr:postcode": "06129",
                "addr:street": "강남대로98길",
                "amenity": "restaurant",
                "cuisine": "italian",
                "name": "사유의서재강남",
                "phone": "+82507-1324-0957",
                "website": "https://app.catchtable.co.kr/ct/shop/Y2F0Y2hfa1JHV09WRU5GbU9KRHYydzFNWkJsZz09",
                "id": "node/10678285517"
            },
            "geometry": {
                "type": "Point",
                "coordinates": [
                    127.0275959,
                    37.5008073
                ]
            }
        },
        {
            "type": "Feature",
            "properties": {
                "addr:housenumber": "10, 세경빌딩 2층",
                "addr:street": "테헤란로1길",
                "amenity": "clinic",
                "name": "샤인빔의원",
                "name:en": "Shine Beam Clinic",
                "opening_hours": "Mo-Fr 11:00-21:00; Sa 11:00-17:00",
                "phone": "02-2088-1008",
                "website": "https://gangnam.shinebeam.co.kr",
                "id": "node/10938705505"
            },
            "geometry": {
                "type": "Point",
                "coordinates": [
                    127.0282211,
                    37.4989566
                ]
            }
        },
        {
            "type": "Feature",
            "properties": {
                "addr:housenumber": "402, 시계탑빌딩 9층",
                "addr:postcode": "06134",
                "addr:street": "강남대로",
                "amenity": "clinic",
                "name": "올리팅리프팅클리닉",
                "opening_hours": "Mo-Th 10:00-19:00; Fr 10:00-20:00; Sa 10:00-17:00",
                "phone": "0262040077",
                "website": "https://allliting.com",
                "id": "node/10940070105"
            },
            "geometry": {
                "type": "Point",
                "coordinates": [
                    127.0278347,
                    37.498789
                ]
            }
        },
        {
            "type": "Feature",
            "properties": {
                "addr:city": "서울특별시 강남구",
                "addr:housenumber": "13",
                "addr:postcode": "06134",
                "addr:street": "강남대로92길",
                "amenity": "clinic",
                "healthcare": "clinic",
                "name": "두드림모발이식센터",
                "id": "node/10967504087"
            },
            "geometry": {
                "type": "Point",
                "coordinates": [
                    127.028492,
                    37.4986447
                ]
            }
        },
        {
            "type": "Feature",
            "properties": {
                "addr:housenumber": "441, 4층",
                "amenity": "clinic",
                "name": "세니아 클리닉",
                "name:en": "XENIA CLINIC",
                "opening_hours": "Mo-Fr 11:00-21:00; Sa 10:30-17:00",
                "website": "https://xenia.clinic/",
                "id": "node/10982215606"
            },
            "geometry": {
                "type": "Point",
                "coordinates": [
                    127.0253899,
                    37.5016997
                ]
            }
        },
        {
            "type": "Feature",
            "properties": {
                "addr:city": "강남구",
                "addr:housenumber": "13",
                "addr:street": "강남대로92길",
                "amenity": "doctors",
                "building": "yes",
                "building:levels": "7층",
                "healthcare": "doctor",
                "name": "두드림모발센터",
                "id": "node/10991677346"
            },
            "geometry": {
                "type": "Point",
                "coordinates": [
                    127.0285217,
                    37.4990633
                ]
            }
        },
        {
            "type": "Feature",
            "properties": {
                "amenity": "karaoke_box",
                "branch": "강남",
                "level": "7",
                "name": "마네키네코",
                "website": "http://www.manekineko.co.kr/",
                "id": "node/11391407288"
            },
            "geometry": {
                "type": "Point",
                "coordinates": [
                    127.0250437,
                    37.5009754
                ]
            }
        },
        {
            "type": "Feature",
            "properties": {
                "addr:borough": "서초구",
                "addr:city": "서울특별시",
                "addr:housenumber": "435",
                "addr:street": "강남대로",
                "amenity": "fast_food",
                "brand": "Five Guys",
                "brand:wikidata": "Q1131810",
                "brand:wikipedia": "en:Five Guys",
                "cuisine": "burger",
                "drive_through": "no",
                "name": "파이브가이즈 강남",
                "name:ko": "파이브가이즈 강남",
                "official_name": "Five Guys Burgers and Fries",
                "id": "node/11443696241"
            },
            "geometry": {
                "type": "Point",
                "coordinates": [
                    127.0256494,
                    37.5011989
                ]
            }
        },
        {
            "type": "Feature",
            "properties": {
                "addr:city": "서울 강남구",
                "addr:housenumber": "28",
                "addr:postcode": "06129",
                "addr:street": "강남대로98길",
                "amenity": "restaurant",
                "name": "올리언즈82 강남점",
                "phone": "+82507-1353-5076",
                "website": "https://booking.naver.com/",
                "id": "node/11518426203"
            },
            "geometry": {
                "type": "Point",
                "coordinates": [
                    127.028679,
                    37.5008806
                ]
            }
        },
        {
            "type": "Feature",
            "properties": {
                "addr:city": "서초구",
                "addr:housenumber": "437",
                "addr:postcode": "06612",
                "addr:province": "서울특별시",
                "addr:street": "강남대로",
                "blood:plasma": "yes",
                "blood:platelets": "yes",
                "blood:whole": "yes",
                "healthcare": "blood_donation",
                "level": "7",
                "name": "헌혈의집",
                "name:ko": "헌혈의집 강남센터",
                "opening_hours": "Mo-Fr 09:00-20:00; Sa-Su 09:00-18:00",
                "operator": "대한적십자사 서울남부혈액원",
                "phone": "+82-2-533-0770",
                "source": "대한적십자사 혈액관리본부",
                "wheelchair": "yes",
                "id": "node/11523352525"
            },
            "geometry": {
                "type": "Point",
                "coordinates": [
                    127.025513,
                    37.5013671
                ]
            }
        },
        {
            "type": "Feature",
            "properties": {
                "bus": "yes",
                "highway": "bus_stop",
                "name": "강남역11번출구",
                "public_transport": "platform",
                "id": "node/11560793750"
            },
            "geometry": {
                "type": "Point",
                "coordinates": [
                    127.0272373,
                    37.4990401
                ]
            }
        }
    ]
}